{
    "links": {
        "self": "http://www.neowsapp.com/rest/v1/neo/3788141?api_key=iIulBulltgU6a56xZRHN4H3l9WmuAYTsLGpBGhQ2"
    },
    "id": "3788141",
    "neo_reference_id": "3788141",
    "name": "(2017 UC43)",
    "designation": "2017 UC43",
    "nasa_jpl_url": "http://ssd.jpl.nasa.gov/sbdb.cgi?sstr=3788141",
    "absolute_magnitude_h": 23.9,
    "estimated_diameter": {
        "kilometers": {
            "estimated_diameter_min": 0.04411182,
            "estimated_diameter_max": 0.0986370281
        },
        "meters": {
            "estimated_diameter_min": 44.1118199997,
            "estimated_diameter_max": 98.6370281305
        },
        "miles": {
            "estimated_diameter_min": 0.0274098057,
            "estimated_diameter_max": 0.0612901888
        },
        "feet": {
            "estimated_diameter_min": 144.7238235278,
            "estimated_diameter_max": 323.6123073718
        }
    },
    "is_potentially_hazardous_asteroid": false,
    "close_approach_data": [
        {
            "close_approach_date": "2017-10-19",
            "close_approach_date_full": "2017-Oct-19 02:09",
            "epoch_date_close_approach": 1508378940000,
            "relative_velocity": {
                "kilometers_per_second": "8.8261078662",
                "kilometers_per_hour": "31773.9883182626",
                "miles_per_hour": "19743.1206858671"
            },
            "miss_distance": {
                "astronomical": "0.147968918",
                "lunar": "57.559909102",
                "kilometers": "22135834.95900466",
                "miles": "13754570.035637908"
            },
            "orbiting_body": "Earth"
        }
    ],
    "orbital_data": {
        "orbit_id": "2",
        "orbit_determination_date": "2017-12-21 06:28:20",
        "first_observation_date": "2017-10-28",
        "last_observation_date": "2017-11-10",
        "data_arc_in_days": 13,
        "observations_used": 31,
        "orbit_uncertainty": "8",
        "minimum_orbit_intersection": ".147512",
        "jupiter_tisserand_invariant": "3.250",
        "epoch_osculation": "2458055.5",
        "eccentricity": ".5341149142872585",
        "semi_major_axis": "2.452951668185745",
        "inclination": "13.45565427453362",
        "ascending_node_longitude": "25.38835643416869",
        "orbital_period": "1403.239863133242",
        "perihelion_distance": "1.142793598181928",
        "perihelion_argument": "4.068120860572137",
        "aphelion_distance": "3.763109738189562",
        "perihelion_time": "2458048.646299177804",
        "mean_anomaly": "1.758311148944519",
        "mean_motion": ".2565491541810746",
        "equinox": "J2000",
        "orbit_class": {
            "orbit_class_type": "AMO",
            "orbit_class_description": "Near-Earth asteroid orbits similar to that of 1221 Amor",
            "orbit_class_range": "1.017 AU < q (perihelion) < 1.3 AU"
        }
    },
    "is_sentry_object": false
}